[{"OBJECT_NAME":"MONITOR-3 (RS58S)","OBJECT_ID":"2023-091Q","EPOCH":"2026-03-09T23:24:02.583360","MEAN_MOTION":15.25747617,"ECCENTRICITY":0.0013676,"INCLINATION":97.5199,"RA_OF_ASC_NODE":131.7909,"ARG_OF_PERICENTER":91.0881,"MEAN_ANOMALY":269.1924,"EPHEMERIS_TYPE":0,"CLASSIFICATION_TYPE":"U","NORAD_CAT_ID":57180,"ELEMENT_SET_NO":999,"REV_AT_EPOCH":14915,"BSTAR":0.00054974842,"MEAN_MOTION_DOT":0.00014004,"MEAN_MOTION_DDOT":0},{"OBJECT_NAME":"STARLINK-31312","OBJECT_ID":"2024-044A","EPOCH":"2026-03-09T07:36:03.695616","MEAN_MOTION":15.27574682,"ECCENTRICITY":0.00012325,"INCLINATION":43.0017,"RA_OF_ASC_NODE":58.4291,"ARG_OF_PERICENTER":266.5226,"MEAN_ANOMALY":93.5484,"EPHEMERIS_TYPE":0,"CLASSIFICATION_TYPE":"U","NORAD_CAT_ID":59152,"ELEMENT_SET_NO":999,"REV_AT_EPOCH":11412,"BSTAR":3.3039854e-5,"MEAN_MOTION_DOT":6.47e-6,"MEAN_MOTION_DDOT":0}]
